STARLINK-1538
1 26071C 20055AW  21325.15317167  .00002156  00000-0  14448-3 0  3255
2 26071  53.0522 302.5523 0001791  67.6346  39.7304 15.06394565    18
